[
    {
        "CCSDS_OMM_VERS": "3.0",
        "COMMENT": "GENERATED VIA SPACE-TRACK.ORG API",
        "CREATION_DATE": "2025-05-04T02:26:54",
        "ORIGINATOR": "18 SPCS",
        "OBJECT_NAME": "COSMOS 2475 (GLONASS)",
        "OBJECT_ID": "2011-064C",
        "CENTER_NAME": "EARTH",
        "REF_FRAME": "TEME",
        "TIME_SYSTEM": "UTC",
        "MEAN_ELEMENT_THEORY": "SGP4",
        "EPOCH": "2025-05-03T20:01:58.656288",
        "MEAN_MOTION": "2.13101795",
        "ECCENTRICITY": "0.00266850",
        "INCLINATION": "65.0562",
        "RA_OF_ASC_NODE": "86.8086",
        "ARG_OF_PERICENTER": "256.2066",
        "MEAN_ANOMALY": "283.8814",
        "EPHEMERIS_TYPE": "0",
        "CLASSIFICATION_TYPE": "U",
        "NORAD_CAT_ID": "37869",
        "ELEMENT_SET_NO": "999",
        "REV_AT_EPOCH": "10504",
        "BSTAR": "0.00000000000000",
        "MEAN_MOTION_DOT": "0.00000028",
        "MEAN_MOTION_DDOT": "0.0000000000000",
        "SEMIMAJOR_AXIS": "25508.041",
        "PERIOD": "675.733",
        "APOAPSIS": "19197.974",
        "PERIAPSIS": "19061.838",
        "OBJECT_TYPE": "PAYLOAD",
        "RCS_SIZE": "LARGE",
        "COUNTRY_CODE": "CIS",
        "LAUNCH_DATE": "2011-11-04",
        "SITE": "TTMTR",
        "DECAY_DATE": null,
        "FILE": "4718307",
        "GP_ID": "286795947",
        "TLE_LINE0": "0 COSMOS 2475 (GLONASS)",
        "TLE_LINE1": "1 37869U 11064C   25123.83470667  .00000028  00000-0  00000-0 0  9999",
        "TLE_LINE2": "2 37869  65.0562  86.8086 0026685 256.2066 283.8814  2.13101795105042"
    }
]